{"fetched_at":"2026-07-21T17:53:28.351Z","source":"https://celestrak.org/NORAD/elements/gp.php?NAME=GLOBAL&FORMAT=JSON","constellation":"blacksky-gen2","records":[{"OBJECT_NAME":"GLOBAL-2","OBJECT_ID":"2018-099BG","EPOCH":"2026-07-21T07:07:07.258656","CLASSIFICATION_TYPE":"U","MEAN_MOTION":15.08850262,"ECCENTRICITY":0.00069974,"INCLINATION":97.3547,"RA_OF_ASC_NODE":237.3921,"ARG_OF_PERICENTER":50.3391,"MEAN_ANOMALY":309.8455,"EPHEMERIS_TYPE":0,"NORAD_CAT_ID":43812,"ELEMENT_SET_NO":999,"REV_AT_EPOCH":41705,"BSTAR":0.00014294041,"MEAN_MOTION_DOT":0.00002191,"MEAN_MOTION_DDOT":0},{"OBJECT_NAME":"GLOBAL-4","OBJECT_ID":"2019-054E","EPOCH":"2026-07-21T06:25:42.001536","CLASSIFICATION_TYPE":"U","MEAN_MOTION":15.67589749,"ECCENTRICITY":0.00063586,"INCLINATION":45.0059,"RA_OF_ASC_NODE":39.2714,"ARG_OF_PERICENTER":233.8977,"MEAN_ANOMALY":126.1334,"EPHEMERIS_TYPE":0,"NORAD_CAT_ID":44499,"ELEMENT_SET_NO":999,"REV_AT_EPOCH":38570,"BSTAR":0.00045419931,"MEAN_MOTION_DOT":0.00050717,"MEAN_MOTION_DDOT":0},{"OBJECT_NAME":"GLOBAL-9","OBJECT_ID":"2021-023G","EPOCH":"2026-07-21T00:28:45.476256","CLASSIFICATION_TYPE":"U","MEAN_MOTION":15.47768152,"ECCENTRICITY":0.00041814,"INCLINATION":44.9815,"RA_OF_ASC_NODE":60.1854,"ARG_OF_PERICENTER":206.1329,"MEAN_ANOMALY":153.9351,"EPHEMERIS_TYPE":0,"NORAD_CAT_ID":47971,"ELEMENT_SET_NO":999,"REV_AT_EPOCH":30018,"BSTAR":0.00032420488,"MEAN_MOTION_DOT":0.00016865,"MEAN_MOTION_DDOT":0},{"OBJECT_NAME":"GLOBAL-14","OBJECT_ID":"2021-106A","EPOCH":"2026-07-21T01:52:10.943616","CLASSIFICATION_TYPE":"U","MEAN_MOTION":15.52020414,"ECCENTRICITY":0.00184858,"INCLINATION":42.0038,"RA_OF_ASC_NODE":89.4337,"ARG_OF_PERICENTER":262.3295,"MEAN_ANOMALY":97.545,"EPHEMERIS_TYPE":0,"NORAD_CAT_ID":49469,"ELEMENT_SET_NO":999,"REV_AT_EPOCH":26339,"BSTAR":0.00031387937,"MEAN_MOTION_DOT":0.00019262,"MEAN_MOTION_DDOT":0},{"OBJECT_NAME":"GLOBAL-12","OBJECT_ID":"2021-115BA","EPOCH":"2026-07-20T19:46:52.652064","CLASSIFICATION_TYPE":"U","MEAN_MOTION":15.55534494,"ECCENTRICITY":0.00030432,"INCLINATION":53.1934,"RA_OF_ASC_NODE":242.5498,"ARG_OF_PERICENTER":78.3409,"MEAN_ANOMALY":281.7945,"EPHEMERIS_TYPE":0,"NORAD_CAT_ID":49772,"ELEMENT_SET_NO":999,"REV_AT_EPOCH":26113,"BSTAR":0.00028935971,"MEAN_MOTION_DOT":0.00019706,"MEAN_MOTION_DDOT":0},{"OBJECT_NAME":"GLOBAL-13","OBJECT_ID":"2021-115BB","EPOCH":"2026-07-21T04:09:19.388448","CLASSIFICATION_TYPE":"U","MEAN_MOTION":15.47250404,"ECCENTRICITY":0.00001782,"INCLINATION":53.196,"RA_OF_ASC_NODE":252.87,"ARG_OF_PERICENTER":86.6801,"MEAN_ANOMALY":273.4228,"EPHEMERIS_TYPE":0,"NORAD_CAT_ID":49773,"ELEMENT_SET_NO":999,"REV_AT_EPOCH":26102,"BSTAR":0.00027077256,"MEAN_MOTION_DOT":0.00013602,"MEAN_MOTION_DDOT":0},{"OBJECT_NAME":"GLOBAL-17","OBJECT_ID":"2021-120A","EPOCH":"2026-07-21T07:09:47.200608","CLASSIFICATION_TYPE":"U","MEAN_MOTION":15.53917487,"ECCENTRICITY":0.00138975,"INCLINATION":41.9931,"RA_OF_ASC_NODE":205.7583,"ARG_OF_PERICENTER":138.3674,"MEAN_ANOMALY":221.8231,"EPHEMERIS_TYPE":0,"NORAD_CAT_ID":49949,"ELEMENT_SET_NO":999,"REV_AT_EPOCH":26020,"BSTAR":0.00031098827,"MEAN_MOTION_DOT":0.00020397,"MEAN_MOTION_DDOT":0},{"OBJECT_NAME":"GLOBAL-16","OBJECT_ID":"2021-120B","EPOCH":"2026-07-21T05:32:40.490016","CLASSIFICATION_TYPE":"U","MEAN_MOTION":15.51656376,"ECCENTRICITY":0.00117417,"INCLINATION":41.9932,"RA_OF_ASC_NODE":210.5567,"ARG_OF_PERICENTER":127.5554,"MEAN_ANOMALY":232.6359,"EPHEMERIS_TYPE":0,"NORAD_CAT_ID":49950,"ELEMENT_SET_NO":999,"REV_AT_EPOCH":26013,"BSTAR":0.00029830369,"MEAN_MOTION_DOT":0.00017969,"MEAN_MOTION_DDOT":0},{"OBJECT_NAME":"GLOBAL-18","OBJECT_ID":"2022-034B","EPOCH":"2026-07-20T23:33:06.935328","CLASSIFICATION_TYPE":"U","MEAN_MOTION":15.47393157,"ECCENTRICITY":0.00046408,"INCLINATION":52.9812,"RA_OF_ASC_NODE":94.9867,"ARG_OF_PERICENTER":40.1805,"MEAN_ANOMALY":319.9543,"EPHEMERIS_TYPE":0,"NORAD_CAT_ID":52196,"ELEMENT_SET_NO":999,"REV_AT_EPOCH":24219,"BSTAR":0.00036667639,"MEAN_MOTION_DOT":0.00018686,"MEAN_MOTION_DDOT":0},{"OBJECT_NAME":"GLOBAL-19","OBJECT_ID":"2023-041B","EPOCH":"2026-07-19T21:12:46.655712","CLASSIFICATION_TYPE":"U","MEAN_MOTION":15.38760174,"ECCENTRICITY":0.00101827,"INCLINATION":42.0026,"RA_OF_ASC_NODE":11.1059,"ARG_OF_PERICENTER":247.3158,"MEAN_ANOMALY":112.6606,"EPHEMERIS_TYPE":0,"NORAD_CAT_ID":55982,"ELEMENT_SET_NO":999,"REV_AT_EPOCH":18696,"BSTAR":0.00022396406,"MEAN_MOTION_DOT":0.0000853,"MEAN_MOTION_DDOT":0},{"OBJECT_NAME":"GLOBAL-5","OBJECT_ID":"2023-041C","EPOCH":"2026-07-21T03:35:34.289088","CLASSIFICATION_TYPE":"U","MEAN_MOTION":15.38800942,"ECCENTRICITY":0.00091965,"INCLINATION":42.002,"RA_OF_ASC_NODE":3.2407,"ARG_OF_PERICENTER":250.6801,"MEAN_ANOMALY":109.3045,"EPHEMERIS_TYPE":0,"NORAD_CAT_ID":55983,"ELEMENT_SET_NO":999,"REV_AT_EPOCH":18716,"BSTAR":0.00027443208,"MEAN_MOTION_DOT":0.00010528,"MEAN_MOTION_DDOT":0}]}
