GLOBAL-2                
1 43812U 18099BG  26202.29661179  .00002191  00000+0  14294-3 0  9993
2 43812  97.3547 237.3921 0006997  50.3391 309.8455 15.08850262417052
GLOBAL-4                
1 44499U 19054E   26202.26784724  .00050717  00000+0  45420-3 0  9998
2 44499  45.0059  39.2714 0006358 233.8977 126.1334 15.67589749385706
GLOBAL-9                
1 47971U 21023G   26202.01997079  .00016865  00000+0  32420-3 0  9999
2 47971  44.9815  60.1854 0004181 206.1329 153.9351 15.47768152300187
GLOBAL-14               
1 49469U 21106A   26202.07790444  .00019262  00000+0  31388-3 0  9994
2 49469  42.0038  89.4337 0018485 262.3295  97.5450 15.52020414263397
GLOBAL-12               
1 49772U 21115BA  26201.82422051  .00019706  00000+0  28936-3 0  9997
2 49772  53.1934 242.5498 0003043  78.3409 281.7945 15.55534494261135
GLOBAL-13               
1 49773U 21115BB  26202.17314107  .00013602  00000+0  27077-3 0  9993
2 49773  53.1960 252.8700 0000178  86.6801 273.4228 15.47250404261026
GLOBAL-17               
1 49949U 21120A   26202.29846297  .00020397  00000+0  31099-3 0  9995
2 49949  41.9931 205.7583 0013897 138.3674 221.8231 15.53917487260203
GLOBAL-16               
1 49950U 21120B   26202.23102419  .00017969  00000+0  29830-3 0  9993
2 49950  41.9932 210.5567 0011741 127.5554 232.6359 15.51656376260133
GLOBAL-18               
1 52196U 22034B   26201.98133027  .00018686  00000+0  36668-3 0  9998
2 52196  52.9812  94.9867 0004640  40.1805 319.9543 15.47393157242194
GLOBAL-19               
1 55982U 23041B   26200.88387333  .00008530  00000+0  22396-3 0  9992
2 55982  42.0026  11.1059 0010182 247.3158 112.6606 15.38760174186968
GLOBAL-5                
1 55983U 23041C   26202.14970242  .00010528  00000+0  27443-3 0  9999
2 55983  42.0020   3.2407 0009196 250.6801 109.3045 15.38800942187168
